NORAD_CAT_ID,OBJECT_NAME,OBJECT_TYPE,EPOCH,MEAN_MOTION,ECCENTRICITY,INCLINATION,RA_OF_ASC_NODE,ARG_OF_PERICENTER,MEAN_ANOMALY,BSTAR,MEAN_MOTION_DOT,MEAN_MOTION_DDOT,TLE_LINE0,TLE_LINE1,TLE_LINE2,SEMIMAJOR_AXIS,PERIOD,APOGEE,PERIGEE,DECAYED
52695.0,STARLINK-4041,PAYLOAD,2024-03-31 17:10:56,15.08841226,0.0001245,53.2183,87.1317,91.9369,268.1766,6.3009e-05,7.15e-06,0.0,0 STARLINK-4041,1 52695U 22053AR  24091.71593697  .00000715  00000-0  63009-4 0  9997,2 52695  53.2183  87.1317 0001245  91.9369 268.1766 15.08841226103802,6917.877,95.437,540.603,538.88,0.0
52695.0,STARLINK-4041,PAYLOAD,2024-04-01 09:04:47,15.08847459,0.0001718,53.2183,84.1555,126.6638,233.4512,4.1867e-05,3.78e-06,0.0,0 STARLINK-4041,1 52695U 22053AR  24092.37833219  .00000378  00000-0  41867-4 0  9990,2 52695  53.2183  84.1555 0001718 126.6638 233.4512 15.08847459104318,6917.858,95.437,540.911,538.534,0.0
52695.0,STARLINK-4041,PAYLOAD,2024-04-02 05:44:48,15.08852802,0.0001531,53.2176,80.2894,100.3106,259.8058,0.00010504,1.385e-05,0.0,0 STARLINK-4041,1 52695U 22053AR  24093.23944628  .00001385  00000-0  10504-3 0  9995,2 52695  53.2176  80.2894 0001531 100.3106 259.8058 15.08852802104039,6917.841,95.437,540.765,538.647,0.0
52695.0,STARLINK-4041,PAYLOAD,2024-04-02 08:55:34,15.08852908,0.0001525,53.2179,79.6949,100.3809,259.7355,0.0001255,1.711e-05,0.0,0 STARLINK-4041,1 52695U 22053AR  24093.37192513  .00001711  00000-0  12550-3 0  9994,2 52695  53.2179  79.6949 0001525 100.3809 259.7355 15.08852908104461,6917.841,95.437,540.761,538.651,0.0
52695.0,STARLINK-4041,PAYLOAD,2024-04-02 23:14:04,15.08832985,0.0001584,53.2179,77.0189,93.1416,266.9758,-4.754e-06,-3.64e-06,0.0,0 STARLINK-4041,1 52695U 22053AR  24093.96810276 -.00000364  00000-0 -47540-5 0  9996,2 52695  53.2179  77.0189 0001584  93.1416 266.9758 15.08832985104557,6917.902,95.438,540.863,538.671,0.0
52695.0,STARLINK-4041,PAYLOAD,2024-04-03 05:35:36,15.08833253,0.0001391,53.2178,75.8299,94.382,265.7331,5.5985e-06,-1.99e-06,0.0,0 STARLINK-4041,1 52695U 22053AR  24094.23306377 -.00000199  00000-0  55985-5 0  9996,2 52695  53.2178  75.8299 0001391  94.3820 265.7331 15.08833253104184,6917.901,95.438,540.728,538.804,0.0
52695.0,STARLINK-4041,PAYLOAD,2024-04-03 08:46:23,15.08831736,0.0001359,53.2176,75.2354,93.9369,266.1778,1.8484e-05,6e-08,0.0,0 STARLINK-4041,1 52695U 22053AR  24094.36554547  .00000006  00000-0  18484-4 0  9992,2 52695  53.2176  75.2354 0001359  93.9369 266.1778 15.08831736104617,6917.906,95.438,540.711,538.831,0.0
52695.0,STARLINK-4041,PAYLOAD,2024-04-03 23:04:51,15.08839579,0.0001356,53.2182,72.5604,97.1087,263.0059,2.6547e-05,1.35e-06,0.0,0 STARLINK-4041,1 52695U 22053AR  24094.96170210  .00000135  00000-0  26547-4 0  9991,2 52695  53.2182  72.5604 0001356  97.1087 263.0059 15.08839579104703,6917.882,95.438,540.685,538.809,0.0
52695.0,STARLINK-4041,PAYLOAD,2024-04-04 05:26:23,15.08842516,0.0001314,53.217,71.3725,95.4607,264.6535,9.1668e-05,1.171e-05,0.0,0 STARLINK-4041,1 52695U 22053AR  24095.22665895  .00001171  00000-0  91668-4 0  9996,2 52695  53.2170  71.3725 0001314  95.4607 264.6535 15.08842516104334,6917.873,95.437,540.647,538.829,0.0
52695.0,STARLINK-4041,PAYLOAD,2024-04-04 14:58:42,15.08841661,0.0001211,53.2165,69.5882,93.8038,266.3092,7.7116e-05,9.4e-06,0.0,0 STARLINK-4041,1 52695U 22053AR  24095.62409994  .00000940  00000-0  77116-4 0  9991,2 52695  53.2165  69.5882 0001211  93.8038 266.3092 15.08841661104806,6917.875,95.437,540.578,538.903,0.0
52695.0,STARLINK-4041,PAYLOAD,2024-04-05 14:49:29,15.08845601,0.0001182,53.2164,65.1279,94.5269,265.5858,0.00021176,3.084e-05,0.0,0 STARLINK-4041,1 52695U 22053AR  24096.61769947  .00003084  00000-0  21176-3 0  9994,2 52695  53.2164  65.1279 0001182  94.5269 265.5858 15.08845601104953,6917.863,95.437,540.546,538.911,0.0
52695.0,STARLINK-4041,PAYLOAD,2024-04-06 03:32:34,15.08835086,0.0001341,53.2167,62.7494,95.5379,264.5766,-4.1633e-05,-9.5e-06,0.0,0 STARLINK-4041,1 52695U 22053AR  24097.14762497 -.00000950  00000-0 -41633-4 0  9998,2 52695  53.2167  62.7494 0001341  95.5379 264.5766 15.08835086104625,6917.895,95.438,540.688,538.833,0.0
52695.0,STARLINK-4041,PAYLOAD,2024-04-06 14:40:16,15.08842367,0.0001435,53.219,60.6666,84.7077,275.4079,1.8988e-05,1.4e-07,0.0,0 STARLINK-4041,1 52695U 22053AR  24097.61130516  .00000014  00000-0  18988-4 0  9997,2 52695  53.2190  60.6666 0001435  84.7077 275.4079 15.08842367105100,6917.873,95.437,540.731,538.745,0.0
52695.0,STARLINK-4041,PAYLOAD,2024-04-06 21:01:49,15.088392,0.000139,53.2177,59.4781,90.7438,269.3713,7.8373e-05,9.6e-06,0.0,0 STARLINK-4041,1 52695U 22053AR  24097.87626631  .00000960  00000-0  78373-4 0  9997,2 52695  53.2177  59.4781 0001390  90.7438 269.3713 15.08839200105140,6917.883,95.438,540.709,538.786,0.0
52695.0,STARLINK-4041,PAYLOAD,2024-04-07 06:34:08,15.08843325,0.0001429,53.2181,57.693,87.4732,272.6424,1.9513e-05,2.3e-07,0.0,0 STARLINK-4041,1 52695U 22053AR  24098.27370615  .00000023  00000-0  19513-4 0  9991,2 52695  53.2181  57.6930 0001429  87.4732 272.6424 15.08843325104793,6917.87,95.437,540.724,538.747,0.0
52695.0,STARLINK-4041,PAYLOAD,2024-04-07 14:31:04,15.08839058,0.0001283,53.2167,56.2067,87.4178,272.6961,2.2976e-05,7.8e-07,0.0,0 STARLINK-4041,1 52695U 22053AR  24098.60490847  .00000078  00000-0  22976-4 0  9995,2 52695  53.2167  56.2067 0001283  87.4178 272.6961 15.08839058105251,6917.883,95.438,540.636,538.861,0.0
52695.0,STARLINK-4041,PAYLOAD,2024-04-08 06:24:55,15.08844887,0.0001285,53.2169,53.2325,92.5702,267.5437,0.00010053,1.313e-05,0.0,0 STARLINK-4041,1 52695U 22053AR  24099.26730474  .00001313  00000-0  10053-3 0  9996,2 52695  53.2169  53.2325 0001285  92.5702 267.5437 15.08844887105357,6917.865,95.437,540.619,538.842,0.0
52695.0,STARLINK-4041,PAYLOAD,2024-04-08 23:54:09,15.08844584,0.000136,53.2169,49.9613,86.68,273.4348,0.00016748,2.379e-05,0.0,0 STARLINK-4041,1 52695U 22053AR  24099.99594341  .00002379  00000-0  16748-3 0  9997,2 52695  53.2169  49.9613 0001360  86.6800 273.4348 15.08844584105469,6917.866,95.437,540.672,538.791,0.0
52695.0,STARLINK-4041,PAYLOAD,2024-04-09 03:04:55,15.08849511,0.000127,53.2169,49.364,93.7061,266.4076,0.00032619,4.909e-05,0.0,0 STARLINK-4041,1 52695U 22053AR  24100.12842287  .00004909  00000-0  32619-3 0  9996,2 52695  53.2169  49.3640 0001270  93.7061 266.4076 15.08849511105073,6917.851,95.437,540.595,538.838,0.0
52695.0,STARLINK-4041,PAYLOAD,2024-04-09 06:15:41,15.08851173,0.0001391,53.2174,48.769,100.0256,260.0893,0.00025723,3.809e-05,0.0,0 STARLINK-4041,1 52695U 22053AR  24100.26090133  .00003809  00000-0  25723-3 0  9992,2 52695  53.2174  48.7690 0001391 100.0256 260.0893 15.08851173105501,6917.846,95.437,540.674,538.749,0.0
52695.0,STARLINK-4041,PAYLOAD,2024-04-10 02:55:43,15.08840284,0.0001383,53.2176,44.9036,86.029,274.086,7.4389e-05,8.96e-06,0.0,0 STARLINK-4041,1 52695U 22053AR  24101.12202883  .00000896  00000-0  74389-4 0  9991,2 52695  53.2176  44.9036 0001383  86.0290 274.0860 15.08840284105226,6917.88,95.438,540.701,538.788,0.0
52695.0,STARLINK-4041,PAYLOAD,2024-04-10 06:06:29,15.08843141,0.000141,53.2182,44.313,81.2799,278.8353,5.3163e-05,5.58e-06,0.0,0 STARLINK-4041,1 52695U 22053AR  24101.25450787  .00000558  00000-0  53163-4 0  9995,2 52695  53.2182  44.3130 0001410  81.2799 278.8353 15.08843141105655,6917.871,95.437,540.711,538.76,0.0
52695.0,STARLINK-4041,PAYLOAD,2024-04-10 20:24:57,15.08842177,0.0001384,53.2187,41.6358,83.6748,276.4402,1.0261e-05,-1.25e-06,0.0,0 STARLINK-4041,1 52695U 22053AR  24101.85066875 -.00000125  00000-0  10261-4 0  9995,2 52695  53.2187  41.6358 0001384  83.6748 276.4402 15.08842177105749,6917.874,95.437,540.696,538.781,0.0
52695.0,STARLINK-4041,PAYLOAD,2024-04-11 12:18:49,15.08844224,0.0001448,53.2186,38.6606,84.1143,276.0014,0.00016625,2.359e-05,0.0,0 STARLINK-4041,1 52695U 22053AR  24102.51306792  .00002359  00000-0  16625-3 0  9993,2 52695  53.2186  38.6606 0001448  84.1143 276.0014 15.08844224105432,6917.867,95.437,540.734,538.731,0.0
52695.0,STARLINK-4041,PAYLOAD,2024-04-12 02:37:17,15.08832904,0.0001319,53.2185,35.9846,78.4238,281.6902,-0.0001613,-2.854e-05,0.0,0 STARLINK-4041,1 52695U 22053AR  24103.10922569 -.00002854  00000-0 -16130-3 0  9998,2 52695  53.2185  35.9846 0001319  78.4238 281.6902 15.08832904105525,6917.902,95.438,540.68,538.855,0.0
52695.0,STARLINK-4041,PAYLOAD,2024-04-13 00:52:40,15.08839129,0.0001303,53.2177,31.8216,79.4251,280.6887,-3.4016e-05,-8.29e-06,0.0,0 STARLINK-4041,1 52695U 22053AR  24104.03658517 -.00000829  00000-0 -34016-4 0  9994,2 52695  53.2177  31.8216 0001303  79.4251 280.6887 15.08839129105663,6917.883,95.438,540.649,538.847,0.0
52695.0,STARLINK-4041,PAYLOAD,2024-04-14 03:54:14,15.08850424,0.0001308,53.218,26.7675,80.2727,279.8413,0.00055629,8.579e-05,0.0,0 STARLINK-4041,1 52695U 22053AR  24105.16266620  .00008579  00000-0  55629-3 0  9999,2 52695  53.2180  26.7675 0001308  80.2727 279.8413 15.08850424105837,6917.849,95.437,540.618,538.809,0.0
52695.0,STARLINK-4041,PAYLOAD,2024-04-15 03:45:01,15.08863742,0.0001619,53.2191,22.3056,76.9792,283.1381,0.00077242,0.00012034,0.0,0 STARLINK-4041,1 52695U 22053AR  24106.15626231  .00012034  00000-0  77242-3 0  9993,2 52695  53.2191  22.3056 0001619  76.9792 283.1381 15.08863742105988,6917.808,95.436,540.793,538.553,0.0
52695.0,STARLINK-4041,PAYLOAD,2024-04-15 18:03:29,15.08835746,0.0001881,53.2191,19.634,71.8648,288.2549,-3.302e-05,-8.14e-06,0.0,0 STARLINK-4041,1 52695U 22053AR  24106.75242960 -.00000814  00000-0 -33020-4 0  9994,2 52695  53.2191  19.6340 0001881  71.8648 288.2549 15.08835746106074,6917.893,95.438,541.06,538.457,0.0
52695.0,STARLINK-4041,PAYLOAD,2024-04-16 00:25:02,15.08842292,0.00019,53.2194,18.4397,122.8552,237.2623,0.00010008,1.305e-05,0.0,0 STARLINK-4041,1 52695U 22053AR  24107.01738536  .00001305  00000-0  10008-3 0  9997,2 52695  53.2194  18.4397 0001900 122.8552 237.2623 15.08842292106115,6917.873,95.437,541.053,538.424,0.0
